NORAD_CAT_ID,OBJECT_NAME,OBJECT_TYPE,EPOCH,MEAN_MOTION,ECCENTRICITY,INCLINATION,RA_OF_ASC_NODE,ARG_OF_PERICENTER,MEAN_ANOMALY,BSTAR,MEAN_MOTION_DOT,MEAN_MOTION_DDOT,TLE_LINE0,TLE_LINE1,TLE_LINE2,SEMIMAJOR_AXIS,PERIOD,APOGEE,PERIGEE,DECAYED
54805.0,STARLINK-5417,PAYLOAD,2023-04-05 04:15:48,15.08805175,0.0001872,53.2178,150.0479,96.8341,263.2864,-0.00015848,-2.807e-05,0.0,0 STARLINK-5417,1 54805U 22175AZ  23095.17764831 -.00002807  00000-0 -15848-3 0  9993,2 54805  53.2178 150.0479 0001872  96.8341 263.2864 15.08805175 16519,6917.987,95.44,541.147,538.557,0.0
54805.0,STARLINK-5417,PAYLOAD,2023-04-05 12:12:43,15.08823337,0.000141,53.2177,148.5645,97.4031,262.7121,-0.0001049,-1.956e-05,0.0,0 STARLINK-5417,1 54805U 22175AZ  23095.50884157 -.00001956  00000-0 -10490-3 0  9996,2 54805  53.2177 148.5645 0001410  97.4031 262.7121 15.08823337 18721,6917.931,95.439,540.772,538.821,0.0
54805.0,STARLINK-5417,PAYLOAD,2023-04-05 20:09:39,15.08829795,0.000154,53.219,147.0792,95.3672,264.7496,-5.5821e-05,-1.176e-05,0.0,0 STARLINK-5417,1 54805U 22175AZ  23095.84003934 -.00001176  00000-0 -55821-4 0  9991,2 54805  53.2190 147.0792 0001540  95.3672 264.7496 15.08829795 16612,6917.912,95.438,540.842,538.711,0.0
54805.0,STARLINK-5417,PAYLOAD,2023-04-06 08:52:43,15.08849263,0.000144,53.2169,144.6986,104.8633,255.2519,2.7658e-06,-2.44e-06,0.0,0 STARLINK-5417,1 54805U 22175AZ  23096.36994574 -.00000244  00000-0  27658-5 0  9990,2 54805  53.2169 144.6986 0001440 104.8633 255.2519 15.08849263 16699,6917.852,95.437,540.713,538.721,0.0
54805.0,STARLINK-5417,PAYLOAD,2023-04-06 12:03:29,15.08852016,0.0001456,53.2171,144.1039,103.6872,256.4283,3.1874e-05,2.19e-06,0.0,0 STARLINK-5417,1 54805U 22175AZ  23096.50242251  .00000219  00000-0  31874-4 0  9999,2 54805  53.2171 144.1039 0001456 103.6872 256.4283 15.08852016 18878,6917.844,95.437,540.716,538.701,0.0
54805.0,STARLINK-5417,PAYLOAD,2023-04-07 11:54:15,15.08848955,0.0001411,53.2172,139.6437,97.1207,262.9946,0.00023573,3.467e-05,0.0,0 STARLINK-5417,1 54805U 22175AZ  23097.49601729  .00003467  00000-0  23573-3 0  9991,2 54805  53.2172 139.6437 0001411  97.1207 262.9946 15.08848955 16862,6917.853,95.437,540.694,538.742,0.0
54805.0,STARLINK-5417,PAYLOAD,2023-04-07 19:51:12,15.08843038,0.0001599,53.2176,138.1589,95.9321,264.1854,8.365e-05,1.044e-05,0.0,0 STARLINK-5417,1 54805U 22175AZ  23097.82722557  .00001044  00000-0  83650-4 0  9993,2 54805  53.2176 138.1589 0001599  95.9321 264.1854 15.08843038 16913,6917.871,95.437,540.842,538.63,0.0
54805.0,STARLINK-5417,PAYLOAD,2023-04-08 11:45:03,15.08849929,0.0001475,53.2175,135.1838,91.9084,268.2077,-4.5554e-05,-1.013e-05,0.0,0 STARLINK-5417,1 54805U 22175AZ  23098.48962164 -.00001013  00000-0 -45554-4 0  9995,2 54805  53.2175 135.1838 0001475  91.9084 268.2077 15.08849929 19179,6917.85,95.437,540.735,538.695,0.0
54805.0,STARLINK-5417,PAYLOAD,2023-04-09 02:03:31,15.08846822,0.0001355,53.2171,132.5066,92.0935,268.0213,-0.0001324,-2.395e-05,0.0,0 STARLINK-5417,1 54805U 22175AZ  23099.08578350 -.00002395  00000-0 -13240-3 0  9992,2 54805  53.2171 132.5066 0001355  92.0935 268.0213 15.08846822 17103,6917.86,95.437,540.662,538.787,0.0
54805.0,STARLINK-5417,PAYLOAD,2023-04-09 08:25:04,15.08847122,0.0001394,53.2171,131.3174,90.6533,269.4619,-0.00011674,-2.146e-05,0.0,0 STARLINK-5417,1 54805U 22175AZ  23099.35074140 -.00002146  00000-0 -11674-3 0  9993,2 54805  53.2171 131.3174 0001394  90.6533 269.4619 15.08847122 19304,6917.859,95.437,540.688,538.759,0.0
54805.0,STARLINK-5417,PAYLOAD,2023-04-09 19:32:46,15.08843379,0.0001518,53.2176,129.2369,82.7073,277.4091,-0.00016141,-2.856e-05,0.0,0 STARLINK-5417,1 54805U 22175AZ  23099.81442351 -.00002856  00000-0 -16141-3 0  9999,2 54805  53.2176 129.2369 0001518  82.7073 277.4091 15.08843379 19370,6917.87,95.437,540.785,538.685,0.0
54805.0,STARLINK-5417,PAYLOAD,2023-04-10 05:05:04,15.08836902,0.0001505,53.2178,127.4531,74.4303,285.6855,-1.2455e-05,-4.86e-06,0.0,0 STARLINK-5417,1 54805U 22175AZ  23100.21186282 -.00000486  00000-0 -12455-4 0  9996,2 54805  53.2178 127.4531 0001505  74.4303 285.6855 15.08836902 17273,6917.89,95.438,540.796,538.714,0.0
54805.0,STARLINK-5417,PAYLOAD,2023-04-10 13:02:00,15.08843993,0.0001376,53.2174,125.9648,89.2152,270.8997,3.5009e-06,-2.32e-06,0.0,0 STARLINK-5417,1 54805U 22175AZ  23100.54305633 -.00000232  00000-0  35009-5 0  9994,2 54805  53.2174 125.9648 0001376  89.2152 270.8997 15.08843993 17320,6917.868,95.437,540.685,538.781,0.0
54805.0,STARLINK-5417,PAYLOAD,2023-04-11 12:52:46,15.08848603,0.0001502,53.2181,121.5037,77.4356,282.6804,5.1897e-05,5.38e-06,0.0,0 STARLINK-5417,1 54805U 22175AZ  23101.53664979  .00000538  00000-0  51897-4 0  9995,2 54805  53.2181 121.5037 0001502  77.4356 282.6804 15.08848603 17475,6917.854,95.437,540.758,538.68,0.0
54805.0,STARLINK-5417,PAYLOAD,2023-04-12 04:46:39,15.08831096,0.000139,53.2172,118.5304,93.2674,266.8477,-6.7304e-05,-1.359e-05,0.0,0 STARLINK-5417,1 54805U 22175AZ  23102.19906600 -.00001359  00000-0 -67304-4 0  9992,2 54805  53.2172 118.5304 0001390  93.2674 266.8477 15.08831096 17571,6917.908,95.438,540.734,538.811,0.0
54805.0,STARLINK-5417,PAYLOAD,2023-04-12 07:57:25,15.08833771,0.0001417,53.2172,117.9356,95.2178,264.8975,-7.5962e-05,-1.496e-05,0.0,0 STARLINK-5417,1 54805U 22175AZ  23102.33154511 -.00001496  00000-0 -75962-4 0  9995,2 54805  53.2172 117.9356 0001417  95.2178 264.8975 15.08833771 19757,6917.899,95.438,540.745,538.784,0.0
54805.0,STARLINK-5417,PAYLOAD,2023-04-13 09:23:35,15.08843721,0.0001324,53.2175,113.1781,103.816,256.2979,-5.315e-05,-1.134e-05,0.0,0 STARLINK-5417,1 54805U 22175AZ  23103.39137946 -.00001134  00000-0 -53150-4 0  9999,2 54805  53.2175 113.1781 0001324 103.8160 256.2979 15.08843721 19917,6917.869,95.437,540.65,538.818,0.0
54805.0,STARLINK-5417,PAYLOAD,2023-04-13 17:20:31,15.08839702,0.0001276,53.2175,111.6915,105.1132,255.0001,-8.2244e-05,-1.597e-05,0.0,0 STARLINK-5417,1 54805U 22175AZ  23103.72258271 -.00001597  00000-0 -82244-4 0  9990,2 54805  53.2175 111.6915 0001276 105.1132 255.0001 15.08839702 17802,6917.881,95.438,540.629,538.864,0.0
54805.0,STARLINK-5417,PAYLOAD,2023-04-14 07:38:59,15.08833509,0.0001349,53.218,109.0151,97.2433,262.8713,3.5126e-05,2.71e-06,0.0,0 STARLINK-5417,1 54805U 22175AZ  23104.31874594  .00000271  00000-0  35126-4 0  9991,2 54805  53.2180 109.0151 0001349  97.2433 262.8713 15.08833509 20053,6917.9,95.438,540.698,538.832,0.0
54805.0,STARLINK-5417,PAYLOAD,2023-04-15 07:29:46,15.08840713,0.0001333,53.2184,104.5555,91.309,268.8055,1.9888e-05,2.9e-07,0.0,0 STARLINK-5417,1 54805U 22175AZ  23105.31234408  .00000029  00000-0  19888-4 0  9994,2 54805  53.2184 104.5555 0001333  91.3090 268.8055 15.08840713 18048,6917.878,95.438,540.665,538.821,0.0
54805.0,STARLINK-5417,PAYLOAD,2023-04-15 17:02:05,15.08837454,0.0001362,53.2185,102.7682,83.8654,276.2493,-2.039e-05,-6.12e-06,0.0,0 STARLINK-5417,1 54805U 22175AZ  23105.70978766 -.00000612  00000-0 -20390-4 0  9999,2 54805  53.2185 102.7682 0001362  83.8654 276.2493 15.08837454 20268,6917.888,95.438,540.695,538.811,0.0
54805.0,STARLINK-5417,PAYLOAD,2023-04-16 07:20:33,15.08841719,0.0001282,53.2179,100.093,90.0965,270.0174,-1.7018e-05,-5.59e-06,0.0,0 STARLINK-5417,1 54805U 22175AZ  23106.30594584 -.00000559  00000-0 -17018-4 0  9991,2 54805  53.2179 100.0930 0001282  90.0965 270.0174 15.08841719 20351,6917.875,95.437,540.627,538.853,0.0
54805.0,STARLINK-5417,PAYLOAD,2023-04-16 16:52:52,15.08840086,0.0001257,53.218,98.3107,81.4393,278.6742,9.9356e-06,-1.3e-06,0.0,0 STARLINK-5417,1 54805U 22175AZ  23106.70338617 -.00000130  00000-0  99356-5 0  9998,2 54805  53.2180  98.3107 0001257  81.4393 278.6742 15.08840086 20417,6917.88,95.438,540.615,538.876,0.0
54805.0,STARLINK-5417,PAYLOAD,2023-04-17 08:46:43,15.08844357,0.0001268,53.2182,95.3353,89.112,271.0017,2.9072e-05,1.75e-06,0.0,0 STARLINK-5417,1 54805U 22175AZ  23107.36578170  .00000175  00000-0  29072-4 0  9996,2 54805  53.2182  95.3353 0001268  89.1120 271.0017 15.08844357 20512,6917.867,95.437,540.609,538.855,0.0
54805.0,STARLINK-5417,PAYLOAD,2023-04-17 16:43:39,15.08843736,0.0001213,53.2178,93.8493,87.9009,272.2122,-6.1972e-06,-3.86e-06,0.0,0 STARLINK-5417,1 54805U 22175AZ  23107.69698223 -.00000386  00000-0 -61972-5 0  9996,2 54805  53.2178  93.8493 0001213  87.9009 272.2122 15.08843736 20562,6917.869,95.437,540.573,538.895,0.0
54805.0,STARLINK-5417,PAYLOAD,2023-04-18 08:37:30,15.08841452,0.0001286,53.2177,90.8757,95.6295,264.4844,1.9494e-05,2.2e-07,0.0,0 STARLINK-5417,1 54805U 22175AZ  23108.35938322  .00000022  00000-0  19494-4 0  9993,2 54805  53.2177  90.8757 0001286  95.6295 264.4844 15.08841452 20662,6917.876,95.437,540.631,538.851,0.0
54805.0,STARLINK-5417,PAYLOAD,2023-04-19 08:28:18,15.08834508,0.0001295,53.2173,86.4141,101.2206,258.8932,-8.9716e-05,-1.715e-05,0.0,0 STARLINK-5417,1 54805U 22175AZ  23109.35299430 -.00001715  00000-0 -89716-4 0  9990,2 54805  53.2173  86.4141 0001295 101.2206 258.8932 15.08834508 20818,6917.897,95.438,540.658,538.866,0.0
54805.0,STARLINK-5417,PAYLOAD,2023-04-20 05:08:18,15.08840962,0.0001178,53.2173,82.5507,93.435,266.6777,5.8192e-05,6.38e-06,0.0,0 STARLINK-5417,1 54805U 22175AZ  23110.21410582  .00000638  00000-0  58192-4 0  9995,2 54805  53.2173  82.5507 0001178  93.4350 266.6777 15.08840962 20942,6917.877,95.437,540.557,538.928,0.0
54805.0,STARLINK-5417,PAYLOAD,2023-04-20 14:40:38,15.08837579,0.0001084,53.2184,80.7668,93.7275,266.3842,-5.4756e-05,-1.159e-05,0.0,0 STARLINK-5417,1 54805U 22175AZ  23110.61155156 -.00001159  00000-0 -54756-4 0  9995,2 54805  53.2184  80.7668 0001084  93.7275 266.3842 15.08837579 18843,6917.888,95.438,540.503,539.003,0.0
54805.0,STARLINK-5417,PAYLOAD,2023-04-21 04:59:07,15.08826927,0.0001184,53.2187,78.0906,95.3523,264.7604,-6.8781e-05,-1.382e-05,0.0,0 STARLINK-5417,1 54805U 22175AZ  23111.20772431 -.00001382  00000-0 -68781-4 0  9993,2 54805  53.2187  78.0906 0001184  95.3523 264.7604 15.08826927 18939,6917.92,95.438,540.604,538.966,0.0
